NORAD_CAT_ID,OBJECT_NAME,OBJECT_TYPE,EPOCH,MEAN_MOTION,ECCENTRICITY,INCLINATION,RA_OF_ASC_NODE,ARG_OF_PERICENTER,MEAN_ANOMALY,BSTAR,MEAN_MOTION_DOT,MEAN_MOTION_DDOT,TLE_LINE0,TLE_LINE1,TLE_LINE2,SEMIMAJOR_AXIS,PERIOD,APOGEE,PERIGEE,DECAYED
49441.0,STARLINK-3128,PAYLOAD,2022-04-15 22:00:00,15.08822037,0.0002373,53.2157,120.6726,35.7665,25.16800000000001,0.0016777,0.00026501,0.0,0 STARLINK-3128,1 49441U 21104AK  22105.91667824  .00026501  00000-0  16777-2 0  9997,2 49441  53.2157 120.6726 0002373  35.7665  25.1680 15.08822037 25069,6917.935,95.439,541.442,538.159,0.0
49441.0,STARLINK-3128,PAYLOAD,2022-04-16 14:00:01,15.08815679,0.00026,53.2157,117.6813,31.0327,53.0671,0.00022788,3.338e-05,0.0,0 STARLINK-3128,1 49441U 21104AK  22106.58334491  .00003338  00000-0  22788-3 0  9995,2 49441  53.2157 117.6813 0002600  31.0327  53.0671 15.08815679 25164,6917.955,95.439,541.618,538.021,0.0
49441.0,STARLINK-3128,PAYLOAD,2022-04-16 22:00:01,15.08795929,0.0002406,53.2161,116.1831,34.9361,60.8001,0.002831,0.00045002,0.0,0 STARLINK-3128,1 49441U 21104AK  22106.91668981  .00045002  00000-0  28310-2 0  9996,2 49441  53.2161 116.1831 0002406  34.9361  60.8001 15.08795929  3576,6918.015,95.44,541.545,538.216,0.0
49441.0,STARLINK-3128,PAYLOAD,2022-04-17 14:00:01,15.08833536,0.0002674,53.2162,113.1918,33.3147,85.4944,-0.00026245,-4.462e-05,0.0,0 STARLINK-3128,1 49441U 21104AK  22107.58334491 -.00004462  00000-0 -26245-3 0  9999,2 49441  53.2162 113.1918 0002674  33.3147  85.4944 15.08833536  3578,6917.9,95.438,541.615,537.915,0.0
49441.0,STARLINK-3128,PAYLOAD,2022-04-17 22:00:00,15.08813325,0.0002476,53.2167,111.6938,37.278,93.1216,0.0026385,0.00041924,0.0,0 STARLINK-3128,1 49441U 21104AK  22107.91667824  .00041924  00000-0  26385-2 0  9991,2 49441  53.2167 111.6938 0002476  37.2780  93.1216 15.08813325  3565,6917.962,95.439,541.54,538.114,0.0
49441.0,STARLINK-3128,PAYLOAD,2022-04-18 08:00:01,15.08831606,0.0002726,53.2169,109.8252,35.8842,198.9994,0.00060135,9.293e-05,0.0,0 STARLINK-3128,1 49441U 21104AK  22108.33334491  .00009293  00000-0  60135-3 0  9994,2 49441  53.2169 109.8252 0002726  35.8842 198.9994 15.08831606 25424,6917.906,95.438,541.6569999999998,537.885,0.0
49441.0,STARLINK-3128,PAYLOAD,2022-04-18 14:00:01,15.0885112,0.0002701,53.2166,108.7025,35.4834,118.0877,-0.00083048,-0.00013486,0.0,0 STARLINK-3128,1 49441U 21104AK  22108.58334491 -.00013486  00000-0 -83048-3 0  9990,2 49441  53.2166 108.7025 0002701  35.4834 118.0877 15.08851120  3609,6917.846,95.437,541.58,537.8430000000002,0.0
49441.0,STARLINK-3128,PAYLOAD,2022-04-18 22:00:00,15.08831581,0.0002497,53.2171,107.2047,39.5684,125.6115,0.0024799,0.00039392,0.0,0 STARLINK-3128,1 49441U 21104AK  22108.91667824  .00039392  00000-0  24799-2 0  9995,2 49441  53.2171 107.2047 0002497  39.5684 125.6115 15.08831581  3566,6917.906,95.438,541.499,538.044,0.0
49441.0,STARLINK-3128,PAYLOAD,2022-04-19 14:00:01,15.08882602,0.000265,53.2169,104.2133,36.9351,151.4535,-0.0042375,-0.00067183,0.0,0 STARLINK-3128,1 49441U 21104AK  22109.58334491 -.00067183  00000-0 -42375-2 0  9991,2 49441  53.2169 104.2133 0002650  36.9351 151.4535 15.08882602 25612,6917.75,95.435,541.448,537.7819999999998,0.0
49441.0,STARLINK-3128,PAYLOAD,2022-04-20 06:00:00,15.08843465,0.0002643,53.2172,101.2212,38.4568,173.1466,-0.00053995,-8.873e-05,0.0,0 STARLINK-3128,1 49441U 21104AK  22110.25001157 -.00008873  00000-0 -53995-3 0  9999,2 49441  53.2172 101.2212 0002643  38.4568 173.1466 15.08843465 25719,6917.87,95.437,541.563,537.906,0.0
49441.0,STARLINK-3128,PAYLOAD,2022-04-20 14:00:01,15.08856423,0.0002606,53.2169,99.7244,37.9284,185.2555,-0.0017475,-0.00028006,0.0,0 STARLINK-3128,1 49441U 21104AK  22110.58334491 -.00028006  00000-0 -17475-2 0  9997,2 49441  53.2169  99.7244 0002606  37.9284 185.2555 15.08856423  3592,6917.83,95.437,541.498,537.8919999999998,0.0
49441.0,STARLINK-3128,PAYLOAD,2022-04-20 22:00:00,15.08832269,0.0002413,53.217,98.227,41.4428,193.3539,0.00011522,1.546e-05,0.0,0 STARLINK-3128,1 49441U 21104AK  22110.91667824  .00001546  00000-0  11522-3 0  9999,2 49441  53.2170  98.2270 0002413  41.4428 193.3539 15.08832269  3586,6917.904,95.438,541.438,538.1,0.0
49441.0,STARLINK-3128,PAYLOAD,2022-04-21 14:00:01,15.08850525,0.0002571,53.2169,95.2356,38.3083,219.6484,-0.0016526,-0.00026502,0.0,0 STARLINK-3128,1 49441U 21104AK  22111.58334491 -.00026502  00000-0 -16526-2 0  9993,2 49441  53.2169  95.2356 0002571  38.3083 219.6484 15.08850525  3567,6917.848000000001,95.437,541.492,537.935,0.0
49441.0,STARLINK-3128,PAYLOAD,2022-04-21 22:00:00,15.08831835,0.0002469,53.217,93.7382,43.1464,226.4076,0.0022651,0.00035938,0.0,0 STARLINK-3128,1 49441U 21104AK  22111.91667824  .00035938  00000-0  22651-2 0  9996,2 49441  53.2170  93.7382 0002469  43.1464 226.4076 15.08831835  3582,6917.905,95.438,541.4780000000002,538.062,0.0
49441.0,STARLINK-3128,PAYLOAD,2022-04-22 14:00:01,15.08886454,0.0002587,53.2169,90.7467,39.0726,253.6822,-0.0050596,-0.00080025,0.0,0 STARLINK-3128,1 49441U 21104AK  22112.58334491 -.00080025  00000-0 -50596-2 0  9999,2 49441  53.2169  90.7467 0002587  39.0726 253.6822 15.08886454  3608,6917.738,95.435,541.393,537.814,0.0
49441.0,STARLINK-3128,PAYLOAD,2022-04-22 16:00:00,15.08864274,0.0002533,53.2171,90.3721,40.4528,345.214,-0.0031693,-0.00050411,0.0,0 STARLINK-3128,1 49441U 21104AK  22112.66667824 -.00050411  00000-0 -31693-2 0  9990,2 49441  53.2171  90.3721 0002533  40.4528 345.2140 15.08864274 26081,6917.806,95.436,541.423,537.919,0.0
49441.0,STARLINK-3128,PAYLOAD,2022-04-23 06:00:02,15.088165300000002,0.0002648,53.2173,87.7547,38.6036,277.4291,0.0003559,5.377e-05,0.0,0 STARLINK-3128,1 49441U 21104AK  22113.25002315  .00005377  00000-0  35590-3 0  9994,2 49441  53.2173  87.7547 0002648  38.6036 277.4291 15.08816530 26163,6917.9519999999975,95.439,541.649,537.985,0.0
49441.0,STARLINK-3128,PAYLOAD,2022-04-23 14:00:01,15.0884578,0.0002566999999999,53.2173,86.2575,38.2224,289.3157,-0.0016165,-0.00025928,0.0,0 STARLINK-3128,1 49441U 21104AK  22113.58334491 -.00025928  00000-0 -16165-2 0  9995,2 49441  53.2173  86.2575 0002567  38.2224 289.3157 15.08845780  3564,6917.863,95.437,541.504,537.952,0.0
49441.0,STARLINK-3128,PAYLOAD,2022-04-24 14:00:01,15.08851109,0.0002551,53.2176,81.7683,38.884,323.4226,-0.0013423,-0.00021595,0.0,0 STARLINK-3128,1 49441U 21104AK  22114.58334491 -.00021595  00000-0 -13423-2 0  9996,2 49441  53.2176  81.7683 0002551  38.8840 323.4226 15.08851109 26362,6917.846,95.437,541.476,537.947,0.0
49441.0,STARLINK-3128,PAYLOAD,2022-04-25 14:00:01,15.08855464,0.000248,53.2179,77.2789,38.8471,358.2333,-0.0019151,-0.00030652,0.0,0 STARLINK-3128,1 49441U 21104AK  22115.58334491 -.00030652  00000-0 -19151-2 0  9995,2 49441  53.2179  77.2789 0002480  38.8471 358.2333 15.08855464 26524,6917.833000000001,95.437,541.414,537.982,0.0
49441.0,STARLINK-3128,PAYLOAD,2022-04-25 22:00:00,15.08839815,0.0002347,53.2182,75.782,41.7905,6.8903,-0.00020753,-3.59e-05,0.0,0 STARLINK-3128,1 49441U 21104AK  22115.91667824 -.00003590  00000-0 -20753-3 0  9993,2 49441  53.2182  75.7820 0002347  41.7905   6.8903 15.08839815  3621,6917.880999999999,95.438,541.37,538.122,0.0
49441.0,STARLINK-3128,PAYLOAD,2022-04-26 06:00:00,15.08821585,0.000253,53.2183,74.2874,38.3837,21.8938,0.0019576,0.0003099,0.0,0 STARLINK-3128,1 49441U 21104AK  22116.25001157  .00030990  00000-0  19576-2 0  9994,2 49441  53.2183  74.2874 0002530  38.3837  21.8938 15.08821585 26620,6917.937,95.439,541.552,538.0509999999998,0.0
49441.0,STARLINK-3128,PAYLOAD,2022-04-26 14:00:01,15.08863755,0.0002368,53.2181,72.7896,39.2758,32.6493,-0.0025905,-0.00041309,0.0,0 STARLINK-3128,1 49441U 21104AK  22116.58335648 -.00041309  00000-0 -25905-2 0  9996,2 49441  53.2181  72.7896 0002368  39.2758  32.6493 15.08863755  3600,6917.808000000001,95.436,541.311,538.035,0.0
49441.0,STARLINK-3128,PAYLOAD,2022-04-26 22:00:00,15.08838824,0.0002237,53.2183,71.293,41.3075,42.1615,0.00043336,6.615e-05,0.0,0 STARLINK-3128,1 49441U 21104AK  22116.91667824  .00006615  00000-0  43336-3 0  9995,2 49441  53.2183  71.2930 0002237  41.3075  42.1615 15.08838824 26725,6917.884,95.438,541.297,538.201,0.0
49441.0,STARLINK-3128,PAYLOAD,2022-04-27 14:00:01,15.08829577,0.0002203,53.218,68.3005,38.232,68.4777,-0.00023735,-4.063e-05,0.0,0 STARLINK-3128,1 49441U 21104AK  22117.58335648 -.00004063  00000-0 -23735-3 0  9993,2 49441  53.2180  68.3005 0002203  38.2320  68.4777 15.08829577 26829,6917.9119999999975,95.438,541.3009999999998,538.253,0.0
49441.0,STARLINK-3128,PAYLOAD,2022-04-28 06:00:00,15.08812175,0.0002263,53.2181,65.3094,36.201,93.6432,0.0034165,0.00054465,0.0,0 STARLINK-3128,1 49441U 21104AK  22118.25001157  .00054465  00000-0  34165-2 0  9990,2 49441  53.2181  65.3094 0002263  36.2010  93.6432 15.08812175 26920,6917.965,95.439,541.396,538.265,0.0
49441.0,STARLINK-3128,PAYLOAD,2022-04-28 14:00:01,15.08858907,0.0002089,53.218,63.8115,37.8335,103.6004,-0.0001393,-2.506e-05,0.0,0 STARLINK-3128,1 49441U 21104AK  22118.58334491 -.00002506  00000-0 -13930-3 0  9995,2 49441  53.2180  63.8115 0002089  37.8335 103.6004 15.08858907  3564,6917.823,95.436,541.133,538.242,0.0
49441.0,STARLINK-3128,PAYLOAD,2022-04-28 22:00:01,15.08867577,0.0002028,53.2182,62.3152,39.3032,113.8075,-0.0016854,-0.00027032,0.0,0 STARLINK-3128,1 49441U 21104AK  22118.91668981 -.00027032  00000-0 -16854-2 0  9994,2 49441  53.2182  62.3152 0002028  39.3032 113.8075 15.08867577 27026,6917.795999999999,95.436,541.064,538.258,0.0
49441.0,STARLINK-3128,PAYLOAD,2022-04-29 14:00:01,15.08821332,0.0002043,53.2181,59.3225,36.8983,139.3641,0.00011369,1.521e-05,0.0,0 STARLINK-3128,1 49441U 21104AK  22119.58334491  .00001521  00000-0  11369-3 0  9994,2 49441  53.2181  59.3225 0002043  36.8983 139.3641 15.08821332  3560,6917.937,95.439,541.216,538.389,0.0
